CCSDS_OMM_VERS = 2.0
CREATION_DATE  = 
ORIGINATOR     = 

OBJECT_NAME    = STARLINK-36726
OBJECT_ID      = 2026-036X
CENTER_NAME    = EARTH
REF_FRAME      = TEME
TIME_SYSTEM    = UTC
MEAN_ELEMENT_THEORY = SGP/SGP4

EPOCH          = 2026-03-21T16:24:15.406560
MEAN_MOTION    = 15.50647951
ECCENTRICITY   = .00022053
INCLINATION    = 43.0027
RA_OF_ASC_NODE = 178.6433
ARG_OF_PERICENTER = 273.7049
MEAN_ANOMALY   = 86.3559

EPHEMERIS_TYPE = 0
CLASSIFICATION_TYPE = U
NORAD_CAT_ID   = 67925
ELEMENT_SET_NO = 999
REV_AT_EPOCH   = 554
BSTAR          = .1381643E-2
MEAN_MOTION_DOT = .81767E-3
MEAN_MOTION_DDOT = 0

CCSDS_OMM_VERS = 2.0
CREATION_DATE  = 
ORIGINATOR     = 

OBJECT_NAME    = STARLINK-36758
OBJECT_ID      = 2026-036Y
CENTER_NAME    = EARTH
REF_FRAME      = TEME
TIME_SYSTEM    = UTC
MEAN_ELEMENT_THEORY = SGP/SGP4

EPOCH          = 2026-03-21T23:18:12.843072
MEAN_MOTION    = 15.50417564
ECCENTRICITY   = .00044438
INCLINATION    = 43.0014
RA_OF_ASC_NODE = 176.4832
ARG_OF_PERICENTER = 54.9409
MEAN_ANOMALY   = 305.1867

EPHEMERIS_TYPE = 0
CLASSIFICATION_TYPE = U
NORAD_CAT_ID   = 67926
ELEMENT_SET_NO = 999
REV_AT_EPOCH   = 559
BSTAR          = .13145524E-2
MEAN_MOTION_DOT = .77116E-3
MEAN_MOTION_DDOT = 0

CCSDS_OMM_VERS = 2.0
CREATION_DATE  = 
ORIGINATOR     = 

OBJECT_NAME    = STARLINK-36728
OBJECT_ID      = 2026-036Z
CENTER_NAME    = EARTH
REF_FRAME      = TEME
TIME_SYSTEM    = UTC
MEAN_ELEMENT_THEORY = SGP/SGP4

EPOCH          = 2026-03-21T22:00:00.999936
MEAN_MOTION    = 15.48357661
ECCENTRICITY   = .0001291
INCLINATION    = 42.9996
RA_OF_ASC_NODE = 176.5549
ARG_OF_PERICENTER = 284.0922
MEAN_ANOMALY   = 231.9763

EPHEMERIS_TYPE = 0
CLASSIFICATION_TYPE = U
NORAD_CAT_ID   = 67927
ELEMENT_SET_NO = 999
REV_AT_EPOCH   = 561
BSTAR          = -.40115738E-1
MEAN_MOTION_DOT = -.1948233E-1
MEAN_MOTION_DDOT = 0

CCSDS_OMM_VERS = 2.0
CREATION_DATE  = 
ORIGINATOR     = 

OBJECT_NAME    = STARLINK-36771
OBJECT_ID      = 2026-036AA
CENTER_NAME    = EARTH
REF_FRAME      = TEME
TIME_SYSTEM    = UTC
MEAN_ELEMENT_THEORY = SGP/SGP4

EPOCH          = 2026-03-21T22:00:00.999936
MEAN_MOTION    = 15.50062083
ECCENTRICITY   = .00012077
INCLINATION    = 43.0000
RA_OF_ASC_NODE = 176.6778
ARG_OF_PERICENTER = 265.0909
MEAN_ANOMALY   = 201.1832

EPHEMERIS_TYPE = 0
CLASSIFICATION_TYPE = U
NORAD_CAT_ID   = 67928
ELEMENT_SET_NO = 999
REV_AT_EPOCH   = 561
BSTAR          = -.36664626E-1
MEAN_MOTION_DOT = -.1897534E-1
MEAN_MOTION_DDOT = 0

CCSDS_OMM_VERS = 2.0
CREATION_DATE  = 
ORIGINATOR     = 

OBJECT_NAME    = STARLINK-36809
OBJECT_ID      = 2026-036AB
CENTER_NAME    = EARTH
REF_FRAME      = TEME
TIME_SYSTEM    = UTC
MEAN_ELEMENT_THEORY = SGP/SGP4

EPOCH          = 2026-03-21T22:00:00.999936
MEAN_MOTION    = 15.50186858
ECCENTRICITY   = .00008986
INCLINATION    = 43.0000
RA_OF_ASC_NODE = 176.6547
ARG_OF_PERICENTER = 255.1006
MEAN_ANOMALY   = 220.4326

EPHEMERIS_TYPE = 0
CLASSIFICATION_TYPE = U
NORAD_CAT_ID   = 67929
ELEMENT_SET_NO = 999
REV_AT_EPOCH   = 561
BSTAR          = -.36300593E-1
MEAN_MOTION_DOT = -.1887993E-1
MEAN_MOTION_DDOT = 0

CCSDS_OMM_VERS = 2.0
CREATION_DATE  = 
ORIGINATOR     = 

OBJECT_NAME    = STARLINK-36865
OBJECT_ID      = 2026-036AC
CENTER_NAME    = EARTH
REF_FRAME      = TEME
TIME_SYSTEM    = UTC
MEAN_ELEMENT_THEORY = SGP/SGP4

EPOCH          = 2026-03-21T22:00:00.999936
MEAN_MOTION    = 15.46886080
ECCENTRICITY   = .00011629
INCLINATION    = 43.0002
RA_OF_ASC_NODE = 176.3404
ARG_OF_PERICENTER = 281.7689
MEAN_ANOMALY   = 321.1012

EPHEMERIS_TYPE = 0
CLASSIFICATION_TYPE = U
NORAD_CAT_ID   = 67930
ELEMENT_SET_NO = 999
REV_AT_EPOCH   = 561
BSTAR          = -.41275509E-1
MEAN_MOTION_DOT = -.1907972E-1
MEAN_MOTION_DDOT = 0

CCSDS_OMM_VERS = 2.0
CREATION_DATE  = 
ORIGINATOR     = 

OBJECT_NAME    = STARLINK-36781
OBJECT_ID      = 2026-036AD
CENTER_NAME    = EARTH
REF_FRAME      = TEME
TIME_SYSTEM    = UTC
MEAN_ELEMENT_THEORY = SGP/SGP4

EPOCH          = 2026-03-21T22:00:00.999936
MEAN_MOTION    = 15.46285006
ECCENTRICITY   = .00014505
INCLINATION    = 42.9993
RA_OF_ASC_NODE = 176.3963
ARG_OF_PERICENTER = 278.1162
MEAN_ANOMALY   = 302.2217

EPHEMERIS_TYPE = 0
CLASSIFICATION_TYPE = U
NORAD_CAT_ID   = 67931
ELEMENT_SET_NO = 999
REV_AT_EPOCH   = 561
BSTAR          = -.43331902E-1
MEAN_MOTION_DOT = -.1956007E-1
MEAN_MOTION_DDOT = 0

CCSDS_OMM_VERS = 2.0
CREATION_DATE  = 
ORIGINATOR     = 

OBJECT_NAME    = STARLINK-36301
OBJECT_ID      = 2026-037A
CENTER_NAME    = EARTH
REF_FRAME      = TEME
TIME_SYSTEM    = UTC
MEAN_ELEMENT_THEORY = SGP/SGP4

EPOCH          = 2026-03-21T22:00:00.999936
MEAN_MOTION    = 15.65280089
ECCENTRICITY   = .00015487
INCLINATION    = 42.9999
RA_OF_ASC_NODE = 123.9458
ARG_OF_PERICENTER = 274.8702
MEAN_ANOMALY   = 116.9968

EPHEMERIS_TYPE = 0
CLASSIFICATION_TYPE = U
NORAD_CAT_ID   = 67932
ELEMENT_SET_NO = 999
REV_AT_EPOCH   = 507
BSTAR          = -.2154549E-1
MEAN_MOTION_DOT = -.1943905E-1
MEAN_MOTION_DDOT = 0

CCSDS_OMM_VERS = 2.0
CREATION_DATE  = 
ORIGINATOR     = 

OBJECT_NAME    = STARLINK-36852
OBJECT_ID      = 2026-037B
CENTER_NAME    = EARTH
REF_FRAME      = TEME
TIME_SYSTEM    = UTC
MEAN_ELEMENT_THEORY = SGP/SGP4

EPOCH          = 2026-03-21T22:00:00.999936
MEAN_MOTION    = 15.50633969
ECCENTRICITY   = .00009429
INCLINATION    = 42.9995
RA_OF_ASC_NODE = 124.8522
ARG_OF_PERICENTER = 249.9957
MEAN_ANOMALY   = 135.9241

EPHEMERIS_TYPE = 0
CLASSIFICATION_TYPE = U
NORAD_CAT_ID   = 67933
ELEMENT_SET_NO = 999
REV_AT_EPOCH   = 516
BSTAR          = -.29742626E-2
MEAN_MOTION_DOT = -.17139E-2
MEAN_MOTION_DDOT = 0

CCSDS_OMM_VERS = 2.0
CREATION_DATE  = 
ORIGINATOR     = 

OBJECT_NAME    = STARLINK-36861
OBJECT_ID      = 2026-037C
CENTER_NAME    = EARTH
REF_FRAME      = TEME
TIME_SYSTEM    = UTC
MEAN_ELEMENT_THEORY = SGP/SGP4

EPOCH          = 2026-03-21T22:00:00.999936
MEAN_MOTION    = 15.61227586
ECCENTRICITY   = .00015971
INCLINATION    = 42.9994
RA_OF_ASC_NODE = 124.0875
ARG_OF_PERICENTER = 270.0308
MEAN_ANOMALY   = 64.8804

EPHEMERIS_TYPE = 0
CLASSIFICATION_TYPE = U
NORAD_CAT_ID   = 67934
ELEMENT_SET_NO = 999
REV_AT_EPOCH   = 516
BSTAR          = -.25212822E-1
MEAN_MOTION_DOT = -.1937126E-1
MEAN_MOTION_DDOT = 0

CCSDS_OMM_VERS = 2.0
CREATION_DATE  = 
ORIGINATOR     = 

OBJECT_NAME    = STARLINK-36860
OBJECT_ID      = 2026-037D
CENTER_NAME    = EARTH
REF_FRAME      = TEME
TIME_SYSTEM    = UTC
MEAN_ELEMENT_THEORY = SGP/SGP4

EPOCH          = 2026-03-21T22:00:00.999936
MEAN_MOTION    = 15.53709730
ECCENTRICITY   = .00011811
INCLINATION    = 42.9997
RA_OF_ASC_NODE = 124.4711
ARG_OF_PERICENTER = 277.1741
MEAN_ANOMALY   = 263.4461

EPHEMERIS_TYPE = 0
CLASSIFICATION_TYPE = U
NORAD_CAT_ID   = 67935
ELEMENT_SET_NO = 999
REV_AT_EPOCH   = 516
BSTAR          = -.32666605E-1
MEAN_MOTION_DOT = -.1892507E-1
MEAN_MOTION_DDOT = 0

CCSDS_OMM_VERS = 2.0
CREATION_DATE  = 
ORIGINATOR     = 

OBJECT_NAME    = STARLINK-36848
OBJECT_ID      = 2026-037E
CENTER_NAME    = EARTH
REF_FRAME      = TEME
TIME_SYSTEM    = UTC
MEAN_ELEMENT_THEORY = SGP/SGP4

EPOCH          = 2026-03-21T22:00:00.999936
MEAN_MOTION    = 15.50838586
ECCENTRICITY   = .00018225
INCLINATION    = 42.9994
RA_OF_ASC_NODE = 124.6041
ARG_OF_PERICENTER = 279.1700
MEAN_ANOMALY   = 206.9980

EPHEMERIS_TYPE = 0
CLASSIFICATION_TYPE = U
NORAD_CAT_ID   = 67936
ELEMENT_SET_NO = 999
REV_AT_EPOCH   = 516
BSTAR          = -.80414018E-2
MEAN_MOTION_DOT = -.450152E-2
MEAN_MOTION_DDOT = 0

CCSDS_OMM_VERS = 2.0
CREATION_DATE  = 
ORIGINATOR     = 

OBJECT_NAME    = STARLINK-36370
OBJECT_ID      = 2026-037F
CENTER_NAME    = EARTH
REF_FRAME      = TEME
TIME_SYSTEM    = UTC
MEAN_ELEMENT_THEORY = SGP/SGP4

EPOCH          = 2026-03-21T22:00:00.999936
MEAN_MOTION    = 15.54600475
ECCENTRICITY   = .00010198
INCLINATION    = 42.9996
RA_OF_ASC_NODE = 124.4080
ARG_OF_PERICENTER = 276.3866
MEAN_ANOMALY   = 289.7443

EPHEMERIS_TYPE = 0
CLASSIFICATION_TYPE = U
NORAD_CAT_ID   = 67937
ELEMENT_SET_NO = 999
REV_AT_EPOCH   = 516
BSTAR          = -.31802101E-1
MEAN_MOTION_DOT = -.1902618E-1
MEAN_MOTION_DDOT = 0

CCSDS_OMM_VERS = 2.0
CREATION_DATE  = 
ORIGINATOR     = 

OBJECT_NAME    = STARLINK-36371
OBJECT_ID      = 2026-037G
CENTER_NAME    = EARTH
REF_FRAME      = TEME
TIME_SYSTEM    = UTC
MEAN_ELEMENT_THEORY = SGP/SGP4

EPOCH          = 2026-03-21T22:00:00.999936
MEAN_MOTION    = 15.58504364
ECCENTRICITY   = .00015193
INCLINATION    = 42.9995
RA_OF_ASC_NODE = 124.1722
ARG_OF_PERICENTER = 266.9203
MEAN_ANOMALY   = 33.1222

EPHEMERIS_TYPE = 0
CLASSIFICATION_TYPE = U
NORAD_CAT_ID   = 67938
ELEMENT_SET_NO = 999
REV_AT_EPOCH   = 516
BSTAR          = -.27920016E-1
MEAN_MOTION_DOT = -.1931396E-1
MEAN_MOTION_DDOT = 0

CCSDS_OMM_VERS = 2.0
CREATION_DATE  = 
ORIGINATOR     = 

OBJECT_NAME    = STARLINK-36246
OBJECT_ID      = 2026-037H
CENTER_NAME    = EARTH
REF_FRAME      = TEME
TIME_SYSTEM    = UTC
MEAN_ELEMENT_THEORY = SGP/SGP4

EPOCH          = 2026-03-21T22:00:00.999936
MEAN_MOTION    = 15.52059956
ECCENTRICITY   = .00014133
INCLINATION    = 42.9995
RA_OF_ASC_NODE = 124.5304
ARG_OF_PERICENTER = 293.1257
MEAN_ANOMALY   = 222.5848

EPHEMERIS_TYPE = 0
CLASSIFICATION_TYPE = U
NORAD_CAT_ID   = 67939
ELEMENT_SET_NO = 999
REV_AT_EPOCH   = 507
BSTAR          = -.33743568E-1
MEAN_MOTION_DOT = -.1846525E-1
MEAN_MOTION_DDOT = 0

